00090   22.93  0.15 K14CS   7.88630   56.99523    2.21400    3.12239  0.5698540  0.21850876   2.7299633    FO 150414    33   1   34 days 0.41 M-P 06  Find_Orb   0000 K14Wa5R [90]                20141228
00091   22.94  0.15 K14CS   7.88522   56.99553    2.21361    3.12254  0.5698901  0.21847820   2.7302179    FO 150414    33   1   34 days 0.47 M-P 06  Find_Orb   0000 K14Wa5R [91]                20141228
00092   22.78  0.15 K14CS   7.88457   56.99815    2.21196    3.12257  0.5699034  0.21846623   2.7303177    FO 150414    33   1   34 days 0.47 M-P 06  Find_Orb   0000 K14Wa5R [92]                20141228
00093   22.93  0.15 K14CS   7.89265   56.98989    2.21894    3.12167  0.5696496  0.21868203   2.7285211    FO 150414    33   1   34 days 0.45 M-P 06  Find_Orb   0000 K14Wa5R [93]                20141228
00094   22.87  0.15 K14CS   7.88495   56.99638    2.21286    3.12255  0.5698982  0.21847142   2.7302744    FO 150414    33   1   34 days 0.39 M-P 06  Find_Orb   0000 K14Wa5R [94]                20141228
00095   22.98  0.15 K14CS   7.88432   56.99489    2.21381    3.12266  0.5699231  0.21845072   2.7304469    FO 150414    33   1   34 days 0.44 M-P 06  Find_Orb   0000 K14Wa5R [95]                20141228
00096   22.86  0.15 K14CS   7.88438   56.99822    2.21174    3.12260  0.5699107  0.21846002   2.7303694    FO 150414    33   1   34 days 0.44 M-P 06  Find_Orb   0000 K14Wa5R [96]                20141228
00097   22.98  0.15 K14CS   7.88485   56.99812    2.21181    3.12253  0.5698956  0.21847303   2.7302610    FO 150414    33   1   34 days 0.45 M-P 06  Find_Orb   0000 K14Wa5R [97]                20141228
00098   22.78  0.15 K14CS   7.89164   56.99366    2.21612    3.12172  0.5696748  0.21865995   2.7287048    FO 150414    33   1   34 days 0.46 M-P 06  Find_Orb   0000 K14Wa5R [98]                20141228
00099   23.04  0.15 K14CS   7.88615   56.99592    2.21366    3.12241  0.5698558  0.21850683   2.7299794    FO 150414    33   1   34 days 0.43 M-P 06  Find_Orb   0000 K14Wa5R [99]                20141228
00100   23.13  0.15 K14CS   7.88186   56.99545    2.21247    3.12297  0.5700099  0.21837780   2.7310547    FO 150414    33   1   34 days 0.47 M-P 06  Find_Orb   0000 K14Wa5R [100]               20141228
00101   22.83  0.15 K14CS   7.88602   56.99389    2.21478    3.12246  0.5698678  0.21849737   2.7300582    FO 150414    33   1   34 days 0.50 M-P 06  Find_Orb   0000 K14Wa5R [101]               20141228
00102   22.92  0.15 K14CS   7.88472   56.99516    2.21354    3.12261  0.5699100  0.21846177   2.7303548    FO 150414    33   1   34 days 0.47 M-P 06  Find_Orb   0000 K14Wa5R [102]               20141228
00103   22.77  0.15 K14CS   7.88780   56.99783    2.21283    3.12215  0.5697932  0.21855901   2.7295449    FO 150414    33   1   34 days 0.42 M-P 06  Find_Orb   0000 K14Wa5R [103]               20141228
00104   22.80  0.15 K14CS   7.88215   56.99829    2.21124    3.12288  0.5699876  0.21839557   2.7309065    FO 150414    33   1   34 days 0.41 M-P 06  Find_Orb   0000 K14Wa5R [104]               20141228
00105   23.06  0.15 K14CS   7.88735   56.99704    2.21348    3.12221  0.5698094  0.21854580   2.7296549    FO 150414    33   1   34 days 0.38 M-P 06  Find_Orb   0000 K14Wa5R [105]               20141228
00106   23.07  0.15 K14CS   7.87987   56.99764    2.21058    3.12319  0.5700727  0.21832445   2.7314996    FO 150414    33   1   34 days 0.34 M-P 06  Find_Orb   0000 K14Wa5R [106]               20141228
00107   22.94  0.15 K14CS   7.88498   57.00123    2.20982    3.12245  0.5698824  0.21848331   2.7301754    FO 150414    33   1   34 days 0.37 M-P 06  Find_Orb   0000 K14Wa5R [107]               20141228
00108   22.74  0.15 K14CS   7.88827   56.99735    2.21320    3.12210  0.5697784  0.21857155   2.7294405    FO 150414    33   1   34 days 0.44 M-P 06  Find_Orb   0000 K14Wa5R [108]               20141228
00109   23.00  0.15 K14CS   7.88760   56.99509    2.21441    3.12222  0.5698093  0.21854657   2.7296485    FO 150414    33   1   34 days 0.44 M-P 06  Find_Orb   0000 K14Wa5R [109]               20141228
00110   23.09  0.15 K14CS   7.88436   57.00048    2.21039    3.12255  0.5699041  0.21846511   2.7303270    FO 150414    33   1   34 days 0.44 M-P 06  Find_Orb   0000 K14Wa5R [110]               20141228
00111   22.67  0.15 K14CS   7.88173   56.99682    2.21176    3.12297  0.5700089  0.21837797   2.7310532    FO 150414    33   1   34 days 0.40 M-P 06  Find_Orb   0000 K14Wa5R [111]               20141228
00112   23.03  0.15 K14CS   7.88910   56.99603    2.21429    3.12201  0.5697535  0.21859297   2.7292622    FO 150414    33   1   34 days 0.40 M-P 06  Find_Orb   0000 K14Wa5R [112]               20141228
00113   22.87  0.15 K14CS   7.88750   56.99912    2.21194    3.12216  0.5697997  0.21855328   2.7295926    FO 150414    33   1   34 days 0.49 M-P 06  Find_Orb   0000 K14Wa5R [113]               20141228
00114   23.03  0.15 K14CS   7.88509   56.99779    2.21210    3.12251  0.5698878  0.21847932   2.7302085    FO 150414    33   1   34 days 0.42 M-P 06  Find_Orb   0000 K14Wa5R [114]               20141228
00115   23.21  0.15 K14CS   7.88400   56.99639    2.21247    3.12266  0.5699325  0.21844278   2.7305131    FO 150414    33   1   34 days 0.44 M-P 06  Find_Orb   0000 K14Wa5R [115]               20141228
00116   23.07  0.15 K14CS   7.88764   56.99563    2.21434    3.12222  0.5698041  0.21855033   2.7296172    FO 150414    33   1   34 days 0.45 M-P 06  Find_Orb   0000 K14Wa5R [116]               20141228
00117   23.13  0.15 K14CS   7.88420   56.99408    2.21412    3.12269  0.5699315  0.21844416   2.7305016    FO 150414    33   1   34 days 0.37 M-P 06  Find_Orb   0000 K14Wa5R [117]               20141228
00118   22.82  0.15 K14CS   7.88516   56.99728    2.21256    3.12251  0.5698863  0.21848093   2.7301951    FO 150414    33   1   34 days 0.45 M-P 06  Find_Orb   0000 K14Wa5R [118]               20141228
00119   23.00  0.15 K14CS   7.88504   56.99584    2.21381    3.12256  0.5698918  0.21847642   2.7302328    FO 150414    33   1   34 days 0.47 M-P 06  Find_Orb   0000 K14Wa5R [119]               20141228
00120   22.83  0.15 K14CS   7.88975   56.99666    2.21400    3.12192  0.5697291  0.21861320   2.7290938    FO 150414    33   1   34 days 0.42 M-P 06  Find_Orb   0000 K14Wa5R [120]               20141228
00121   22.97  0.15 K14CS   7.88618   56.99597    2.21333    3.12239  0.5698574  0.21850579   2.7299881    FO 150414    33   1   34 days 0.43 M-P 06  Find_Orb   0000 K14Wa5R [121]               20141228
00122   23.23  0.15 K14CS   7.88704   56.99840    2.21215    3.12224  0.5698188  0.21853732   2.7297254    FO 150414    33   1   34 days 0.38 M-P 06  Find_Orb   0000 K14Wa5R [122]               20141228
00123   23.05  0.15 K14CS   7.89010   56.99767    2.21332    3.12185  0.5697149  0.21862497   2.7289959    FO 150414    33   1   34 days 0.40 M-P 06  Find_Orb   0000 K14Wa5R [123]               20141228
00124   23.06  0.15 K14CS   7.88925   56.99708    2.21371    3.12198  0.5697443  0.21860020   2.7292020    FO 150414    33   1   34 days 0.40 M-P 06  Find_Orb   0000 K14Wa5R [124]               20141228
00125   23.07  0.15 K14CS   7.88651   56.99671    2.21319    3.12234  0.5698414  0.21851881   2.7298796    FO 150414    33   1   34 days 0.49 M-P 06  Find_Orb   0000 K14Wa5R [125]               20141228
00126   22.93  0.15 K14CS   7.88577   56.99490    2.21419    3.12248  0.5698723  0.21849328   2.7300923    FO 150414    33   1   34 days 0.42 M-P 06  Find_Orb   0000 K14Wa5R [126]               20141228
00127   22.92  0.15 K14CS   7.88023   57.00152    2.20904    3.12308  0.5700419  0.21834875   2.7312969    FO 150414    33   1   34 days 0.40 M-P 06  Find_Orb   0000 K14Wa5R [127]               20141228
00128   22.94  0.15 K14CS   7.88221   56.99817    2.21128    3.12287  0.5699859  0.21839696   2.7308949    FO 150414    33   1   34 days 0.41 M-P 06  Find_Orb   0000 K14Wa5R [128]               20141228
00129   23.01  0.15 K14CS   7.88878   57.00061    2.21172    3.12197  0.5697474  0.21859666   2.7292315    FO 150414    33   1   34 days 0.44 M-P 06  Find_Orb   0000 K14Wa5R [129]               20141228
00130   22.89  0.15 K14CS   7.88539   56.99397    2.21433    3.12253  0.5698913  0.21847792   2.7302202    FO 150414    33   1   34 days 0.42 M-P 06  Find_Orb   0000 K14Wa5R [130]               20141228
00131   22.92  0.15 K14CS   7.88356   56.99921    2.21112    3.12267  0.5699348  0.21843958   2.7305397    FO 150414    33   1   34 days 0.47 M-P 06  Find_Orb   0000 K14Wa5R [131]               20141228
00132   22.89  0.15 K14CS   7.88826   56.99466    2.21476    3.12213  0.5697886  0.21856421   2.7295016    FO 150414    33   1   34 days 0.47 M-P 06  Find_Orb   0000 K14Wa5R [132]               20141228
00133   22.66  0.15 K14CS   7.88423   56.99886    2.21145    3.12261  0.5699130  0.21845792   2.7303869    FO 150414    33   1   34 days 0.42 M-P 06  Find_Orb   0000 K14Wa5R [133]               20141228
00134   22.90  0.15 K14CS   7.88038   56.99987    2.20980    3.12308  0.5700445  0.21834744   2.7313078    FO 150414    33   1   34 days 0.36 M-P 06  Find_Orb   0000 K14Wa5R [134]               20141228
00135   23.06  0.15 K14CS   7.88698   56.99446    2.21455    3.12232  0.5698337  0.21852617   2.7298183    FO 150414    33   1   34 days 0.42 M-P 06  Find_Orb   0000 K14Wa5R [135]               20141228
00136   22.78  0.15 K14CS   7.88270   56.99961    2.21069    3.12279  0.5699630  0.21841566   2.7307390    FO 150414    33   1   34 days 0.43 M-P 06  Find_Orb   0000 K14Wa5R [136]               20141228
00137   22.71  0.15 K14CS   7.88515   56.99765    2.21222    3.12250  0.5698863  0.21848085   2.7301959    FO 150414    33   1   34 days 0.39 M-P 06  Find_Orb   0000 K14Wa5R [137]               20141228
00138   23.09  0.15 K14CS   7.88900   56.99371    2.21538    3.12206  0.5697669  0.21858270   2.7293477    FO 150414    33   1   34 days 0.41 M-P 06  Find_Orb   0000 K14Wa5R [138]               20141228
